LEMUR-2-FURIAUS         
1 42840U 17042R   26068.96143223  .00025928  00000+0  99966-3 0  9991
2 42840  97.3753 248.4990 0007537  55.8686 304.3266 15.26272951473053
STARLINK-32450          
1 61969U 24210L   26067.58679732  .00035602  00000+0  12967-2 0  9990
2 61969  42.9994 178.9286 0002229 261.1082  98.9517 15.27587636 74691
