[{"OBJECT_NAME":"LEMUR-2-FURIAUS","OBJECT_ID":"2017-042R","EPOCH":"2026-03-09T23:04:27.745536","MEAN_MOTION":15.26272951,"ECCENTRICITY":0.00075374,"INCLINATION":97.3753,"RA_OF_ASC_NODE":248.499,"ARG_OF_PERICENTER":55.8686,"MEAN_ANOMALY":304.3266,"EPHEMERIS_TYPE":0,"CLASSIFICATION_TYPE":"U","NORAD_CAT_ID":42840,"ELEMENT_SET_NO":999,"REV_AT_EPOCH":47305,"BSTAR":0.00099966194,"MEAN_MOTION_DOT":0.00025928,"MEAN_MOTION_DDOT":0},{"OBJECT_NAME":"STARLINK-32450","OBJECT_ID":"2024-210L","EPOCH":"2026-03-08T14:04:59.288448","MEAN_MOTION":15.27587636,"ECCENTRICITY":0.00022291,"INCLINATION":42.9994,"RA_OF_ASC_NODE":178.9286,"ARG_OF_PERICENTER":261.1082,"MEAN_ANOMALY":98.9517,"EPHEMERIS_TYPE":0,"CLASSIFICATION_TYPE":"U","NORAD_CAT_ID":61969,"ELEMENT_SET_NO":999,"REV_AT_EPOCH":7469,"BSTAR":0.0012966884,"MEAN_MOTION_DOT":0.00035602,"MEAN_MOTION_DDOT":0}]
